[{"OBJECT_NAME":"STARLINK-4490","OBJECT_ID":"2022-097X","EPOCH":"2026-03-09T12:11:45.953664","MEAN_MOTION":15.08837053,"ECCENTRICITY":0.0001525,"INCLINATION":53.2162,"RA_OF_ASC_NODE":105.1299,"ARG_OF_PERICENTER":81.641,"MEAN_ANOMALY":278.4755,"EPHEMERIS_TYPE":0,"CLASSIFICATION_TYPE":"U","NORAD_CAT_ID":53409,"ELEMENT_SET_NO":999,"REV_AT_EPOCH":19876,"BSTAR":5.0140834e-5,"MEAN_MOTION_DOT":5.1e-6,"MEAN_MOTION_DDOT":0},{"OBJECT_NAME":"COSMOS 886 DEB","OBJECT_ID":"1976-126AC","EPOCH":"2026-03-09T13:15:07.724736","MEAN_MOTION":13.93465348,"ECCENTRICITY":0.05677787,"INCLINATION":65.7943,"RA_OF_ASC_NODE":197.2003,"ARG_OF_PERICENTER":79.0347,"MEAN_ANOMALY":287.4036,"EPHEMERIS_TYPE":0,"CLASSIFICATION_TYPE":"U","NORAD_CAT_ID":9816,"ELEMENT_SET_NO":999,"REV_AT_EPOCH":39335,"BSTAR":0.0010199395,"MEAN_MOTION_DOT":5.154e-5,"MEAN_MOTION_DDOT":0}]
